OBJECT_NAME,OBJECT_ID,EPOCH,MEAN_MOTION,ECCENTRICITY,INCLINATION,RA_OF_ASC_NODE,ARG_OF_PERICENTER,MEAN_ANOMALY,EPHEMERIS_TYPE,CLASSIFICATION_TYPE,NORAD_CAT_ID,ELEMENT_SET_NO,REV_AT_EPOCH,BSTAR,MEAN_MOTION_DOT,MEAN_MOTION_DDOT
STARLINK-30796,2023-167Q,2026-07-04T18:20:22.308576,15.27588955,.00014222,43.0041,201.9217,278.5297,81.5393,0,U,58189,999,14889,.69192881E-4,.1643E-4,0
STARLINK-30820,2023-167R,2026-07-04T18:14:47.551776,15.27592369,.00016277,43.0042,201.8958,283.9023,76.1648,0,U,58190,999,14889,.99608889E-4,.2481E-4,0
STARLINK-30785,2023-167S,2026-07-04T17:34:19.846560,15.27583478,.00009192,42.9999,202.5366,277.6801,82.3946,0,U,58191,999,14888,.21429598E-3,.564E-4,0
STARLINK-30807,2023-167T,2026-07-04T11:06:36.237024,15.27598291,.00016268,42.9992,203.9571,273.3406,86.7260,0,U,58192,999,14884,.42038384E-3,.1133E-3,0
STARLINK-30822,2023-167U,2026-07-04T17:49:07.743072,15.27579085,.00008199,43.0006,202.6124,285.1927,74.8834,0,U,58193,999,14888,.71978128E-4,.1719E-4,0
STARLINK-30830,2023-167V,2026-07-04T18:16:40.451520,15.27577334,.00010379,43.0028,201.8850,277.7349,82.3385,0,U,58194,999,14889,.72960885E-4,.1746E-4,0
STARLINK-30827,2023-167W,2026-07-04T18:11:07.259424,15.27584936,.00010187,43.0022,201.8759,266.3806,93.6929,0,U,58195,999,14889,.1121697E-3,.2826E-4,0
STARLINK-30798,2023-167X,2026-07-04T17:39:52.489152,15.27584612,.00012994,43.0013,202.5658,270.2934,89.7769,0,U,58196,999,14888,.95896957E-4,.2378E-4,0
STARLINK-30762,2023-167Y,2026-07-04T17:54:40.632768,15.27583061,.0001206,43.0005,202.6386,268.2958,91.7756,0,U,58197,999,14888,.79908712E-4,.1938E-4,0
STARLINK-30800,2023-170A,2026-07-04T11:03:04.075776,15.27575000,.00013711,43.0036,255.1456,268.0356,92.0339,0,U,58206,999,14815,.12460785E-3,.3168E-4,0
STARLINK-30845,2023-170B,2026-07-04T05:49:36.187680,15.07475039,.00028798,42.9989,279.9284,322.5554,37.5090,0,U,58207,999,14784,.22574365E-2,.34781E-3,0
STARLINK-30841,2023-170C,2026-07-04T13:56:34.087776,15.27579370,.00020178,43.0048,254.3186,269.6485,90.4136,0,U,58208,999,14817,.13572446E-3,.3474E-4,0
STARLINK-30839,2023-170D,2026-07-04T11:21:21.709152,15.27572534,.00011631,43.0004,254.3868,274.8985,85.1734,0,U,58209,999,14816,.13472812E-3,.3446E-4,0
STARLINK-30846,2023-170E,2026-07-04T11:14:10.446144,15.27585754,.00017589,43.0017,255.2019,279.7687,80.2966,0,U,58210,999,14815,.71462076E-4,.1705E-4,0
STARLINK-30838,2023-170F,2026-07-04T11:36:09.899424,15.27566710,.00012559,43.0016,254.4591,274.6448,85.4260,0,U,58211,999,14816,.15126336E-3,.3901E-4,0
STARLINK-30837,2023-170G,2026-07-04T11:08:36.504960,15.27585920,.00016201,43.0023,255.1525,279.1139,80.9530,0,U,58212,999,14815,.61947577E-4,.1443E-4,0
STARLINK-30813,2023-170H,2026-07-04T13:15:52.192224,15.27582291,.00012318,43.0009,254.1195,265.9383,94.1328,0,U,58213,999,14817,.15676383E-3,.4054E-4,0
STARLINK-30805,2023-170J,2026-07-04T20:49:59.557152,15.27583365,.00010526,42.9996,252.1871,261.8115,98.2617,0,U,58214,999,14822,.16182971E-3,.4194E-4,0
STARLINK-30851,2023-170K,2026-07-04T05:13:59.472480,15.27571112,.00013455,43.0025,255.9049,264.4891,95.5807,0,U,58215,999,14812,.60611887E-4,.1406E-4,0
STARLINK-30818,2023-170M,2026-07-04T11:39:51.844608,15.27577807,.00011054,43.0023,254.4792,268.5930,91.4795,0,U,58217,999,14816,.10921143E-3,.2744E-4,0
STARLINK-30794,2023-170N,2026-07-04T20:51:50.319360,15.27594720,.00015971,43.0009,252.1817,273.9358,86.1311,0,U,58218,999,14822,.22712091E-3,.5996E-4,0
STARLINK-30835,2023-170P,2026-07-04T11:56:30.873120,15.27613653,.00012981,42.9992,254.5618,266.4503,93.6201,0,U,58219,999,14816,.94485541E-3,.25856E-3,0
STARLINK-30792,2023-170Q,2026-07-04T15:45:53.345088,15.08646372,.00087159,43.0004,276.1632,340.3193,19.7314,0,U,58220,999,14792,.24109868E-2,.3842E-3,0
STARLINK-30836,2023-170R,2026-07-04T12:05:49.636608,15.27556647,.00022064,43.0025,254.6099,283.6418,76.4188,0,U,58221,999,14816,-.1435831E-3,-.4209E-4,0
STARLINK-30855,2023-170S,2026-07-04T21:52:53.545440,15.27587813,.00012888,43.0047,252.4933,273.0112,87.0592,0,U,58222,999,14822,.1706203E-3,.4437E-4,0
STARLINK-30840,2023-170T,2026-07-04T14:07:40.708704,15.27588951,.0001588,43.0003,254.3709,277.8393,82.2278,0,U,58223,999,14817,.22885593E-3,.6042E-4,0
STARLINK-30875,2023-170U,2026-07-04T13:08:27.951936,15.27577768,.00012142,42.9996,254.0607,276.2078,83.8635,0,U,58224,999,14817,.19743278E-3,.5174E-4,0
STARLINK-30872,2023-170V,2026-07-04T12:07:09.833088,15.27589006,.00016343,43.0013,112.6029,263.5094,96.5572,0,U,58225,999,14983,.85683416E-4,.2097E-4,0
STARLINK-30865,2023-170W,2026-07-04T05:21:27.506592,15.27606517,.00012575,43.0045,244.8946,270.4891,89.5816,0,U,58226,999,14825,-.19032157E-3,-.55E-4,0
STARLINK-30874,2023-170X,2026-07-04T04:20:32.157600,15.27575612,.00016298,43.0043,256.4753,261.8716,98.1951,0,U,58227,999,14811,.41098307E-4,.869E-5,0
