STARLINK-30796          
1 58189U 23167Q   26185.76414709  .00001643  00000+0  69193-4 0  9995
2 58189  43.0041 201.9217 0001422 278.5297  81.5393 15.27588955148890
STARLINK-30820          
1 58190U 23167R   26185.76027259  .00002481  00000+0  99609-4 0  9993
2 58190  43.0042 201.8958 0001627 283.9023  76.1648 15.27592369148895
STARLINK-30785          
1 58191U 23167S   26185.73217415  .00005640  00000+0  21430-3 0  9992
2 58191  42.9999 202.5366 0000919 277.6801  82.3946 15.27583478148883
STARLINK-30807          
1 58192U 23167T   26185.46291941  .00011330  00000+0  42038-3 0  9999
2 58192  42.9992 203.9571 0001626 273.3406  86.7260 15.27598291148842
STARLINK-30822          
1 58193U 23167U   26185.74245073  .00001719  00000+0  71978-4 0  9992
2 58193  43.0006 202.6124 0000819 285.1927  74.8834 15.27579085148882
STARLINK-30830          
1 58194U 23167V   26185.76157930  .00001746  00000+0  72961-4 0  9992
2 58194  43.0028 201.8850 0001037 277.7349  82.3385 15.27577334148893
STARLINK-30827          
1 58195U 23167W   26185.75772291  .00002826  00000+0  11217-3 0  9991
2 58195  43.0022 201.8759 0001018 266.3806  93.6929 15.27584936148892
STARLINK-30798          
1 58196U 23167X   26185.73602418  .00002378  00000+0  95897-4 0  9992
2 58196  43.0013 202.5658 0001299 270.2934  89.7769 15.27584612148884
STARLINK-30762          
1 58197U 23167Y   26185.74630362  .00001938  00000+0  79909-4 0  9990
2 58197  43.0005 202.6386 0001206 268.2958  91.7756 15.27583061148882
STARLINK-30800          
1 58206U 23170A   26185.46046384  .00003168  00000+0  12461-3 0  9995
2 58206  43.0036 255.1456 0001371 268.0356  92.0339 15.27575000148156
STARLINK-30845          
1 58207U 23170B   26185.24277995  .00034781  00000+0  22574-2 0  9996
2 58207  42.9989 279.9284 0002879 322.5554  37.5090 15.07475039147847
STARLINK-30841          
1 58208U 23170C   26185.58095009  .00003474  00000+0  13572-3 0  9992
2 58208  43.0048 254.3186 0002017 269.6485  90.4136 15.27579370148173
STARLINK-30839          
1 58209U 23170D   26185.47316793  .00003446  00000+0  13473-3 0  9996
2 58209  43.0004 254.3868 0001163 274.8985  85.1734 15.27572534148166
STARLINK-30846          
1 58210U 23170E   26185.46817646  .00001705  00000+0  71462-4 0  9999
2 58210  43.0017 255.2019 0001758 279.7687  80.2966 15.27585754148153
STARLINK-30838          
1 58211U 23170F   26185.48344791  .00003901  00000+0  15126-3 0  9992
2 58211  43.0016 254.4591 0001255 274.6448  85.4260 15.27566710148166
STARLINK-30837          
1 58212U 23170G   26185.46431140  .00001443  00000+0  61948-4 0  9999
2 58212  43.0023 255.1525 0001620 279.1139  80.9530 15.27585920148156
STARLINK-30813          
1 58213U 23170H   26185.55268741  .00004054  00000+0  15676-3 0  9992
2 58213  43.0009 254.1195 0001231 265.9383  94.1328 15.27582291148177
STARLINK-30805          
1 58214U 23170J   26185.86805043  .00004194  00000+0  16183-3 0  9998
2 58214  42.9996 252.1871 0001052 261.8115  98.2617 15.27583365148224
STARLINK-30851          
1 58215U 23170K   26185.21804945  .00001406  00000+0  60612-4 0  9998
2 58215  43.0025 255.9049 0001345 264.4891  95.5807 15.27571112148120
STARLINK-30818          
1 58217U 23170M   26185.48601672  .00002744  00000+0  10921-3 0  9994
2 58217  43.0023 254.4792 0001105 268.5930  91.4795 15.27577807148164
STARLINK-30794          
1 58218U 23170N   26185.86933240  .00005996  00000+0  22712-3 0  9999
2 58218  43.0009 252.1817 0001597 273.9358  86.1311 15.27594720148226
STARLINK-30835          
1 58219U 23170P   26185.49757955  .00025856  00000+0  94486-3 0  9990
2 58219  42.9992 254.5618 0001298 266.4503  93.6201 15.27613653148169
STARLINK-30792          
1 58220U 23170Q   26185.65686742  .00038420  00000+0  24110-2 0  9992
2 58220  43.0004 276.1632 0008715 340.3193  19.7314 15.08646372147921
STARLINK-30836          
1 58221U 23170R   26185.50404672 -.00004209  00000+0 -14358-3 0  9991
2 58221  43.0025 254.6099 0002206 283.6418  76.4188 15.27556647148163
STARLINK-30855          
1 58222U 23170S   26185.91173085  .00004437  00000+0  17062-3 0  9994
2 58222  43.0047 252.4933 0001288 273.0112  87.0592 15.27587813148227
STARLINK-30840          
1 58223U 23170T   26185.58866561  .00006042  00000+0  22886-3 0  9990
2 58223  43.0003 254.3709 0001588 277.8393  82.2278 15.27588951148174
STARLINK-30875          
1 58224U 23170U   26185.54754574  .00005174  00000+0  19743-3 0  9990
2 58224  42.9996 254.0607 0001214 276.2078  83.8635 15.27577768148175
STARLINK-30872          
1 58225U 23170V   26185.50497492  .00002097  00000+0  85683-4 0  9998
2 58225  43.0013 112.6029 0001634 263.5094  96.5572 15.27589006149831
STARLINK-30865          
1 58226U 23170W   26185.22323503 -.00005500  00000+0 -19032-3 0  9997
2 58226  43.0045 244.8946 0001257 270.4891  89.5816 15.27606517148251
STARLINK-30874          
1 58227U 23170X   26185.18092775  .00000869  00000+0  41098-4 0  9996
2 58227  43.0043 256.4753 0001629 261.8716  98.1951 15.27575612148110
